CCSDS_OMM_VERS = 2.0
CREATION_DATE  = 
ORIGINATOR     = 

OBJECT_NAME    = KUIPER-00191
OBJECT_ID      = 2025-301L
CENTER_NAME    = EARTH
REF_FRAME      = TEME
TIME_SYSTEM    = UTC
MEAN_ELEMENT_THEORY = SGP/SGP4

EPOCH          = 2026-01-14T12:13:28.952832
MEAN_MOTION    = 15.35983253
ECCENTRICITY   = .00066593
INCLINATION    = 51.8685
RA_OF_ASC_NODE = 327.1168
ARG_OF_PERICENTER = 190.8224
MEAN_ANOMALY   = 169.2619

EPHEMERIS_TYPE = 0
CLASSIFICATION_TYPE = U
NORAD_CAT_ID   = 67143
ELEMENT_SET_NO = 999
REV_AT_EPOCH   = 543
BSTAR          = .37068555E-3
MEAN_MOTION_DOT = .1283E-3
MEAN_MOTION_DDOT = 0

CCSDS_OMM_VERS = 2.0
CREATION_DATE  = 
ORIGINATOR     = 

OBJECT_NAME    = KUIPER-00196
OBJECT_ID      = 2025-301M
CENTER_NAME    = EARTH
REF_FRAME      = TEME
TIME_SYSTEM    = UTC
MEAN_ELEMENT_THEORY = SGP/SGP4

EPOCH          = 2026-01-14T05:36:44.926848
MEAN_MOTION    = 15.36654186
ECCENTRICITY   = .00037084
INCLINATION    = 51.8736
RA_OF_ASC_NODE = 328.2815
ARG_OF_PERICENTER = 151.1716
MEAN_ANOMALY   = 208.9476

EPHEMERIS_TYPE = 0
CLASSIFICATION_TYPE = U
NORAD_CAT_ID   = 67144
ELEMENT_SET_NO = 999
REV_AT_EPOCH   = 536
BSTAR          = .61020301E-3
MEAN_MOTION_DOT = .2186E-3
MEAN_MOTION_DDOT = 0

CCSDS_OMM_VERS = 2.0
CREATION_DATE  = 
ORIGINATOR     = 

OBJECT_NAME    = KUIPER-00204
OBJECT_ID      = 2025-301N
CENTER_NAME    = EARTH
REF_FRAME      = TEME
TIME_SYSTEM    = UTC
MEAN_ELEMENT_THEORY = SGP/SGP4

EPOCH          = 2026-01-14T14:00:01.999872
MEAN_MOTION    = 15.24081593
ECCENTRICITY   = .00046123
INCLINATION    = 51.8825
RA_OF_ASC_NODE = 327.0425
ARG_OF_PERICENTER = 124.3659
MEAN_ANOMALY   = 120.9752

EPHEMERIS_TYPE = 0
CLASSIFICATION_TYPE = U
NORAD_CAT_ID   = 67145
ELEMENT_SET_NO = 999
REV_AT_EPOCH   = 552
BSTAR          = -.7094011E-3
MEAN_MOTION_DOT = -.17765E-3
MEAN_MOTION_DDOT = 0

CCSDS_OMM_VERS = 2.0
CREATION_DATE  = 
ORIGINATOR     = 

OBJECT_NAME    = KUIPER-00210
OBJECT_ID      = 2025-301P
CENTER_NAME    = EARTH
REF_FRAME      = TEME
TIME_SYSTEM    = UTC
MEAN_ELEMENT_THEORY = SGP/SGP4

EPOCH          = 2026-01-14T11:07:01.642080
MEAN_MOTION    = 15.34888745
ECCENTRICITY   = .00106792
INCLINATION    = 51.8623
RA_OF_ASC_NODE = 327.5366
ARG_OF_PERICENTER = 216.2948
MEAN_ANOMALY   = 143.7314

EPHEMERIS_TYPE = 0
CLASSIFICATION_TYPE = U
NORAD_CAT_ID   = 67146
ELEMENT_SET_NO = 999
REV_AT_EPOCH   = 556
BSTAR          = .53211852E-3
MEAN_MOTION_DOT = .17969E-3
MEAN_MOTION_DDOT = 0

CCSDS_OMM_VERS = 2.0
CREATION_DATE  = 
ORIGINATOR     = 

OBJECT_NAME    = KUIPER-00221
OBJECT_ID      = 2025-301Q
CENTER_NAME    = EARTH
REF_FRAME      = TEME
TIME_SYSTEM    = UTC
MEAN_ELEMENT_THEORY = SGP/SGP4

EPOCH          = 2026-01-14T14:00:01.999872
MEAN_MOTION    = 15.32989311
ECCENTRICITY   = .0004889
INCLINATION    = 51.8732
RA_OF_ASC_NODE = 326.7130
ARG_OF_PERICENTER = 167.8742
MEAN_ANOMALY   = 271.2966

EPHEMERIS_TYPE = 0
CLASSIFICATION_TYPE = U
NORAD_CAT_ID   = 67147
ELEMENT_SET_NO = 999
REV_AT_EPOCH   = 490
BSTAR          = -.2004209E-3
MEAN_MOTION_DOT = -.6853E-4
MEAN_MOTION_DDOT = 0

CCSDS_OMM_VERS = 2.0
CREATION_DATE  = 
ORIGINATOR     = 

OBJECT_NAME    = KUIPER-00232
OBJECT_ID      = 2025-301R
CENTER_NAME    = EARTH
REF_FRAME      = TEME
TIME_SYSTEM    = UTC
MEAN_ELEMENT_THEORY = SGP/SGP4

EPOCH          = 2026-01-14T09:59:41.387136
MEAN_MOTION    = 15.37209879
ECCENTRICITY   = .00026679
INCLINATION    = 51.8742
RA_OF_ASC_NODE = 327.2575
ARG_OF_PERICENTER = 95.2674
MEAN_ANOMALY   = 264.8617

EPHEMERIS_TYPE = 0
CLASSIFICATION_TYPE = U
NORAD_CAT_ID   = 67148
ELEMENT_SET_NO = 999
REV_AT_EPOCH   = 539
BSTAR          = .79288483E-3
MEAN_MOTION_DOT = .29068E-3
MEAN_MOTION_DDOT = 0

CCSDS_OMM_VERS = 2.0
CREATION_DATE  = 
ORIGINATOR     = 

OBJECT_NAME    = KUIPER-00241
OBJECT_ID      = 2025-301S
CENTER_NAME    = EARTH
REF_FRAME      = TEME
TIME_SYSTEM    = UTC
MEAN_ELEMENT_THEORY = SGP/SGP4

EPOCH          = 2026-01-14T02:23:17.843712
MEAN_MOTION    = 15.36878692
ECCENTRICITY   = .00028484
INCLINATION    = 51.8748
RA_OF_ASC_NODE = 328.8804
ARG_OF_PERICENTER = 145.8023
MEAN_ANOMALY   = 214.3147

EPHEMERIS_TYPE = 0
CLASSIFICATION_TYPE = U
NORAD_CAT_ID   = 67149
ELEMENT_SET_NO = 999
REV_AT_EPOCH   = 567
BSTAR          = .66004419E-3
MEAN_MOTION_DOT = .23857E-3
MEAN_MOTION_DDOT = 0

CCSDS_OMM_VERS = 2.0
CREATION_DATE  = 
ORIGINATOR     = 

OBJECT_NAME    = KUIPER-00245
OBJECT_ID      = 2025-301T
CENTER_NAME    = EARTH
REF_FRAME      = TEME
TIME_SYSTEM    = UTC
MEAN_ELEMENT_THEORY = SGP/SGP4

EPOCH          = 2026-01-14T14:00:01.999872
MEAN_MOTION    = 15.21751558
ECCENTRICITY   = .00079024
INCLINATION    = 51.8793
RA_OF_ASC_NODE = 327.1474
ARG_OF_PERICENTER = 188.7114
MEAN_ANOMALY   = 2.9631

EPHEMERIS_TYPE = 0
CLASSIFICATION_TYPE = U
NORAD_CAT_ID   = 67150
ELEMENT_SET_NO = 999
REV_AT_EPOCH   = 490
BSTAR          = -.38986945E-1
MEAN_MOTION_DOT = -.827866E-2
MEAN_MOTION_DDOT = 0

CCSDS_OMM_VERS = 2.0
CREATION_DATE  = 
ORIGINATOR     = 

OBJECT_NAME    = KUIPER-00246
OBJECT_ID      = 2025-301U
CENTER_NAME    = EARTH
REF_FRAME      = TEME
TIME_SYSTEM    = UTC
MEAN_ELEMENT_THEORY = SGP/SGP4

EPOCH          = 2026-01-14T07:11:50.978976
MEAN_MOTION    = 15.36611501
ECCENTRICITY   = .00038512
INCLINATION    = 51.8739
RA_OF_ASC_NODE = 327.9740
ARG_OF_PERICENTER = 168.0113
MEAN_ANOMALY   = 192.0965

EPHEMERIS_TYPE = 0
CLASSIFICATION_TYPE = U
NORAD_CAT_ID   = 67151
ELEMENT_SET_NO = 999
REV_AT_EPOCH   = 539
BSTAR          = .50719529E-3
MEAN_MOTION_DOT = .1807E-3
MEAN_MOTION_DDOT = 0

CCSDS_OMM_VERS = 2.0
CREATION_DATE  = 
ORIGINATOR     = 

OBJECT_NAME    = KUIPER-00247
OBJECT_ID      = 2025-301V
CENTER_NAME    = EARTH
REF_FRAME      = TEME
TIME_SYSTEM    = UTC
MEAN_ELEMENT_THEORY = SGP/SGP4

EPOCH          = 2026-01-14T03:24:22.987872
MEAN_MOTION    = 15.34542009
ECCENTRICITY   = .00112503
INCLINATION    = 51.8666
RA_OF_ASC_NODE = 329.1402
ARG_OF_PERICENTER = 215.3647
MEAN_ANOMALY   = 144.6594

EPHEMERIS_TYPE = 0
CLASSIFICATION_TYPE = U
NORAD_CAT_ID   = 67152
ELEMENT_SET_NO = 999
REV_AT_EPOCH   = 534
BSTAR          = .54486509E-3
MEAN_MOTION_DOT = .18207E-3
MEAN_MOTION_DDOT = 0

CCSDS_OMM_VERS = 2.0
CREATION_DATE  = 
ORIGINATOR     = 

OBJECT_NAME    = KUIPER-00248
OBJECT_ID      = 2025-301W
CENTER_NAME    = EARTH
REF_FRAME      = TEME
TIME_SYSTEM    = UTC
MEAN_ELEMENT_THEORY = SGP/SGP4

EPOCH          = 2026-01-14T10:53:09.292128
MEAN_MOTION    = 15.35381328
ECCENTRICITY   = .00078782
INCLINATION    = 51.8694
RA_OF_ASC_NODE = 327.4923
ARG_OF_PERICENTER = 201.5988
MEAN_ANOMALY   = 158.4667

EPHEMERIS_TYPE = 0
CLASSIFICATION_TYPE = U
NORAD_CAT_ID   = 67153
ELEMENT_SET_NO = 999
REV_AT_EPOCH   = 556
BSTAR          = .60097506E-3
MEAN_MOTION_DOT = .20662E-3
MEAN_MOTION_DDOT = 0

CCSDS_OMM_VERS = 2.0
CREATION_DATE  = 
ORIGINATOR     = 

OBJECT_NAME    = KUIPER-00249
OBJECT_ID      = 2025-301X
CENTER_NAME    = EARTH
REF_FRAME      = TEME
TIME_SYSTEM    = UTC
MEAN_ELEMENT_THEORY = SGP/SGP4

EPOCH          = 2026-01-14T02:58:38.672544
MEAN_MOTION    = 15.35741814
ECCENTRICITY   = .0008292
INCLINATION    = 51.8684
RA_OF_ASC_NODE = 329.0303
ARG_OF_PERICENTER = 197.8548
MEAN_ANOMALY   = 162.2148

EPHEMERIS_TYPE = 0
CLASSIFICATION_TYPE = U
NORAD_CAT_ID   = 67154
ELEMENT_SET_NO = 999
REV_AT_EPOCH   = 534
BSTAR          = .56681891E-3
MEAN_MOTION_DOT = .19694E-3
MEAN_MOTION_DDOT = 0

